[
    {
        "Altitude(m)": 604234.6253180635,
        "Argument of Periapsis(deg)": 0.0,
        "Eccentricity": 0.0,
        "Inclination(deg)": 60.0,
        "Latitude(deg)": 14.117327510380386,
        "Longitude(deg)": 111.72733641468554,
        "Mean Anomaly(deg)": 163.6364,
        "RAAN(deg)": 40.0,
        "Satellite Name": "Test1 186",
        "Satellite Number": 186,
        "Semi-Major Axis(m)": 6980739.136638005,
        "Time(s)": 0
    },
    {
        "Altitude(m)": 604223.4532934627,
        "Argument of Periapsis(deg)": 0.00010418945913296404,
        "Eccentricity": 0.0,
        "Inclination(deg)": 60.0,
        "Latitude(deg)": 13.582463699828473,
        "Longitude(deg)": 112.0142453428081,
        "Mean Anomaly(deg)": 164.25650614546183,
        "RAAN(deg)": 39.99957995086026,
        "Satellite Name": "Test1 186",
        "Satellite Number": 186,
        "Semi-Major Axis(m)": 6980739.136638005,
        "Time(s)": 10
    },
    {
        "Altitude(m)": 604215.2365282319,
        "Argument of Periapsis(deg)": 0.0002083789182659281,
        "Eccentricity": 0.0,
        "Inclination(deg)": 60.0,
        "Latitude(deg)": 13.047151750383138,
        "Longitude(deg)": 112.29968375059558,
        "Mean Anomaly(deg)": 164.87661229092367,
        "RAAN(deg)": 39.99915990172052,
        "Satellite Name": "Test1 186",
        "Satellite Number": 186,
        "Semi-Major Axis(m)": 6980739.136638005,
        "Time(s)": 20
    },
    {
        "Altitude(m)": 604210.0029146838,
        "Argument of Periapsis(deg)": 0.00031256837739889213,
        "Eccentricity": 0.0,
        "Inclination(deg)": 60.0,
        "Latitude(deg)": 12.51141205071227,
        "Longitude(deg)": 112.58371635156612,
        "Mean Anomaly(deg)": 165.4967184363855,
        "RAAN(deg)": 39.998739852580776,
        "Satellite Name": "Test1 186",
        "Satellite Number": 186,
        "Semi-Major Axis(m)": 6980739.136638005,
        "Time(s)": 30
    },
    {
        "Altitude(m)": 604207.7790010893,
        "Argument of Periapsis(deg)": 0.0004167578365318562,
        "Eccentricity": 0.0,
        "Inclination(deg)": 60.0,
        "Latitude(deg)": 11.975264713525428,
        "Longitude(deg)": 112.86640751385247,
        "Mean Anomaly(deg)": 166.11682458184734,
        "RAAN(deg)": 39.998319803441035,
        "Satellite Name": "Test1 186",
        "Satellite Number": 186,
        "Semi-Major Axis(m)": 6980739.136638005,
        "Time(s)": 40
    },
    {
        "Altitude(m)": 604208.5899758871,
        "Argument of Periapsis(deg)": 0.0005209472956648203,
        "Eccentricity": 0.0,
        "Inclination(deg)": 60.0,
        "Latitude(deg)": 11.438729589521833,
        "Longitude(deg)": 113.14782029191836,
        "Mean Anomaly(deg)": 166.7369307273092,
        "RAAN(deg)": 39.99789975430128,
        "Satellite Name": "Test1 186",
        "Satellite Number": 186,
        "Semi-Major Axis(m)": 6980739.136638005,
        "Time(s)": 50
    },
    {
        "Altitude(m)": 604212.4596525589,
        "Argument of Periapsis(deg)": 0.0006251367547977843,
        "Eccentricity": 0.0,
        "Inclination(deg)": 60.0,
        "Latitude(deg)": 10.901826280981034,
        "Longitude(deg)": 113.4280169704608,
        "Mean Anomaly(deg)": 167.35703687277103,
        "RAAN(deg)": 39.99747970516154,
        "Satellite Name": "Test1 186",
        "Satellite Number": 186,
        "Semi-Major Axis(m)": 6980739.136638005,
        "Time(s)": 60
    },
    {
        "Altitude(m)": 604219.4104551466,
        "Argument of Periapsis(deg)": 0.0007293262139307483,
        "Eccentricity": 0.0,
        "Inclination(deg)": 60.0,
        "Latitude(deg)": 10.364574155015836,
        "Longitude(deg)": 113.70705960765366,
        "Mean Anomaly(deg)": 167.97714301823282,
        "RAAN(deg)": 39.997059656021804,
        "Satellite Name": "Test1 186",
        "Satellite Number": 186,
        "Semi-Major Axis(m)": 6980739.136638005,
        "Time(s)": 70
    },
    {
        "Altitude(m)": 604229.4634044605,
        "Argument of Periapsis(deg)": 0.0008335156730637124,
        "Eccentricity": 0.0,
        "Inclination(deg)": 60.0,
        "Latitude(deg)": 9.826992356506723,
        "Longitude(deg)": 113.98500906488854,
        "Mean Anomaly(deg)": 168.59724916369464,
        "RAAN(deg)": 39.996639606882056,
        "Satellite Name": "Test1 186",
        "Satellite Number": 186,
        "Semi-Major Axis(m)": 6980739.136638005,
        "Time(s)": 80
    },
    {
        "Altitude(m)": 604242.6381049751,
        "Argument of Periapsis(deg)": 0.0009377051321966765,
        "Eccentricity": 0.0,
        "Inclination(deg)": 60.0,
        "Latitude(deg)": 9.289099820734583,
        "Longitude(deg)": 114.26192554878905,
        "Mean Anomaly(deg)": 169.2173553091565,
        "RAAN(deg)": 39.996219557742315,
        "Satellite Name": "Test1 186",
        "Satellite Number": 186,
        "Semi-Major Axis(m)": 6980739.136638005,
        "Time(s)": 90
    },
    {
        "Altitude(m)": 604258.9527323686,
        "Argument of Periapsis(deg)": 0.0010418945913296407,
        "Eccentricity": 0.0,
        "Inclination(deg)": 60.0,
        "Latitude(deg)": 8.750915285729782,
        "Longitude(deg)": 114.53786915265592,
        "Mean Anomaly(deg)": 169.83746145461834,
        "RAAN(deg)": 39.99579950860257,
        "Satellite Name": "Test1 186",
        "Satellite Number": 186,
        "Semi-Major Axis(m)": 6980739.136638005,
        "Time(s)": 100
    },
    {
        "Altitude(m)": 604278.4240218115,
        "Argument of Periapsis(deg)": 0.0011460840504626045,
        "Eccentricity": 0.0,
        "Inclination(deg)": 60.0,
        "Latitude(deg)": 8.212457304356006,
        "Longitude(deg)": 114.81289888449697,
        "Mean Anomaly(deg)": 170.45756760008015,
        "RAAN(deg)": 39.99537945946283,
        "Satellite Name": "Test1 186",
        "Satellite Number": 186,
        "Semi-Major Axis(m)": 6980739.136638005,
        "Time(s)": 110
    },
    {
        "Altitude(m)": 604301.067256925,
        "Argument of Periapsis(deg)": 0.0012502735095955685,
        "Eccentricity": 0.0,
        "Inclination(deg)": 60.0,
        "Latitude(deg)": 7.673744256142835,
        "Longitude(deg)": 115.08707320742118,
        "Mean Anomaly(deg)": 171.07767374554194,
        "RAAN(deg)": 39.99495941032309,
        "Satellite Name": "Test1 186",
        "Satellite Number": 186,
        "Semi-Major Axis(m)": 6980739.136638005,
        "Time(s)": 120
    },
    {
        "Altitude(m)": 604326.8962594484,
        "Argument of Periapsis(deg)": 0.0013544629687285324,
        "Eccentricity": 0.0,
        "Inclination(deg)": 60.0,
        "Latitude(deg)": 7.13479435888612,
        "Longitude(deg)": 115.36045057955086,
        "Mean Anomaly(deg)": 171.6977798910038,
        "RAAN(deg)": 39.99453936118334,
        "Satellite Name": "Test1 186",
        "Satellite Number": 186,
        "Semi-Major Axis(m)": 6980739.136638005,
        "Time(s)": 130
    },
    {
        "Altitude(m)": 604355.9233796238,
        "Argument of Periapsis(deg)": 0.0014586524278614966,
        "Eccentricity": 0.0,
        "Inclination(deg)": 60.0,
        "Latitude(deg)": 6.5956256800313735,
        "Longitude(deg)": 115.63308848060942,
        "Mean Anomaly(deg)": 172.31788603646564,
        "RAAN(deg)": 39.9941193120436,
        "Satellite Name": "Test1 186",
        "Satellite Number": 186,
        "Semi-Major Axis(m)": 6980739.136638005,
        "Time(s)": 140
    },
    {
        "Altitude(m)": 604388.1594873125,
        "Argument of Periapsis(deg)": 0.0015628418869944607,
        "Eccentricity": 0.0,
        "Inclination(deg)": 60.0,
        "Latitude(deg)": 6.05625614785484,
        "Longitude(deg)": 115.90504395096129,
        "Mean Anomaly(deg)": 172.93799218192746,
        "RAAN(deg)": 39.99369926290386,
        "Satellite Name": "Test1 186",
        "Satellite Number": 186,
        "Semi-Major Axis(m)": 6980739.136638005,
        "Time(s)": 150
    },
    {
        "Altitude(m)": 604423.6139638114,
        "Argument of Periapsis(deg)": 0.0016670313461274247,
        "Eccentricity": 0.0,
        "Inclination(deg)": 60.0,
        "Latitude(deg)": 5.5167035624582486,
        "Longitude(deg)": 116.17637413025959,
        "Mean Anomaly(deg)": 173.5580983273893,
        "RAAN(deg)": 39.99327921376412,
        "Satellite Name": "Test1 186",
        "Satellite Number": 186,
        "Semi-Major Axis(m)": 6980739.136638005,
        "Time(s)": 160
    },
    {
        "Altitude(m)": 604462.2946944167,
        "Argument of Periapsis(deg)": 0.0017712208052603888,
        "Eccentricity": 0.0,
        "Inclination(deg)": 60.0,
        "Latitude(deg)": 4.976985606593578,
        "Longitude(deg)": 116.44713528285774,
        "Mean Anomaly(deg)": 174.17820447285115,
        "RAAN(deg)": 39.99285916462437,
        "Satellite Name": "Test1 186",
        "Satellite Number": 186,
        "Semi-Major Axis(m)": 6980739.136638005,
        "Time(s)": 170
    },
    {
        "Altitude(m)": 604504.208061714,
        "Argument of Periapsis(deg)": 0.001875410264393353,
        "Eccentricity": 0.0,
        "Inclination(deg)": 60.0,
        "Latitude(deg)": 4.437119856330283,
        "Longitude(deg)": 116.71738333576177,
        "Mean Anomaly(deg)": 174.79831061831297,
        "RAAN(deg)": 39.99243911548463,
        "Satellite Name": "Test1 186",
        "Satellite Number": 186,
        "Semi-Major Axis(m)": 6980739.136638005,
        "Time(s)": 180
    },
    {
        "Altitude(m)": 604549.3589396101,
        "Argument of Periapsis(deg)": 0.0019795997235263173,
        "Eccentricity": 0.0,
        "Inclination(deg)": 60.0,
        "Latitude(deg)": 3.8971237915809427,
        "Longitude(deg)": 116.9871744162789,
        "Mean Anomaly(deg)": 175.4184167637748,
        "RAAN(deg)": 39.99201906634489,
        "Satellite Name": "Test1 186",
        "Satellite Number": 186,
        "Semi-Major Axis(m)": 6980739.136638005,
        "Time(s)": 190
    }
]